{"type": "FeatureCollection", "features": [{"type": "Feature", "properties": {"norad_id": 2807, "name": "OPS 7218 (TRANSIT 16)", "group": "nnss", "lat": 2.9946194577634726, "lon": 174.20703971200842, "alt_km": 1060.9661037267224, "timestamp": "2025-12-06T11:28:11.331219+00:00", "meta": {"OBJECT_NAME": "OPS 7218 (TRANSIT 16)", "OBJECT_ID": "1967-048A", "EPOCH": "2025-12-06T00:04:17.891904", "MEAN_MOTION": 13.50720333, "ECCENTRICITY": 0.00216313, "INCLINATION": 89.6733, "RA_OF_ASC_NODE": 354.2398, "ARG_OF_PERICENTER": 132.2001, "MEAN_ANOMALY": 256.5241, "EPHEMERIS_TYPE": 0, "CLASSIFICATION_TYPE": "U", "NORAD_CAT_ID": 2807, "ELEMENT_SET_NO": 999, "REV_AT_EPOCH": 88185, "BSTAR": 0.00025066895, "MEAN_MOTION_DOT": 1.72e-06, "MEAN_MOTION_DDOT": 0}, "tle": {"line1": "1 02807U 67048A   25340.00298486  .00000172  00000+0  25067-3 0  9995", "line2": "2 02807  89.6733 354.2398 0021631 132.2001 256.5241 13.50720333881853"}}, "geometry": {"type": "Point", "coordinates": [174.20703971200842, 2.9946194577634726]}}, {"type": "Feature", "properties": {"norad_id": 2965, "name": "OPS 4947 (TRANSIT 17)", "group": "nnss", "lat": 0.6788003891612207, "lon": -155.0956345030692, "alt_km": 1053.0026489191405, "timestamp": "2025-12-06T11:28:11.331240+00:00", "meta": {"OBJECT_NAME": "OPS 4947 (TRANSIT 17)", "OBJECT_ID": "1967-092A", "EPOCH": "2025-12-05T21:14:54.385152", "MEAN_MOTION": 13.53451157, "ECCENTRICITY": 0.00458464, "INCLINATION": 89.2503, "RA_OF_ASC_NODE": 24.9583, "ARG_OF_PERICENTER": 255.0879, "MEAN_ANOMALY": 279.1541, "EPHEMERIS_TYPE": 0, "CLASSIFICATION_TYPE": "U", "NORAD_CAT_ID": 2965, "ELEMENT_SET_NO": 999, "REV_AT_EPOCH": 87004, "BSTAR": 0.0003103912, "MEAN_MOTION_DOT": 2.21e-06, "MEAN_MOTION_DDOT": 0}, "tle": {"line1": "1 02965U 67092A   25339.88535168  .00000221  00000+0  31039-3 0  9995", "line2": "2 02965  89.2503  24.9583 0045846 255.0879 279.1541 13.53451157870048"}}, "geometry": {"type": "Point", "coordinates": [-155.0956345030692, 0.6788003891612207]}}, {"type": "Feature", "properties": {"norad_id": 3133, "name": "OPS 7034 (TRANSIT 18)", "group": "nnss", "lat": 11.24103969568272, "lon": -86.38411193732532, "alt_km": 1122.2778108297516, "timestamp": "2025-12-06T11:28:11.331254+00:00", "meta": {"OBJECT_NAME": "OPS 7034 (TRANSIT 18)", "OBJECT_ID": "1968-012A", "EPOCH": "2025-12-05T21:31:36.702048", "MEAN_MOTION": 13.51563444, "ECCENTRICITY": 0.0073213, "INCLINATION": 90.0272, "RA_OF_ASC_NODE": 273.6197, "ARG_OF_PERICENTER": 189.0449, "MEAN_ANOMALY": 237.3312, "EPHEMERIS_TYPE": 0, "CLASSIFICATION_TYPE": "U", "NORAD_CAT_ID": 3133, "ELEMENT_SET_NO": 999, "REV_AT_EPOCH": 56826, "BSTAR": 0.00026501947, "MEAN_MOTION_DOT": 1.85e-06, "MEAN_MOTION_DDOT": 0}, "tle": {"line1": "1 03133U 68012A   25339.89695257  .00000185  00000+0  26502-3 0  9991", "line2": "2 03133  90.0272 273.6197 0073213 189.0449 237.3312 13.51563444568262"}}, "geometry": {"type": "Point", "coordinates": [-86.38411193732532, 11.24103969568272]}}, {"type": "Feature", "properties": {"norad_id": 4507, "name": "NNSS 19 (TRANSIT 19)", "group": "nnss", "lat": -10.395285722779592, "lon": -125.46950245859003, "alt_km": 970.5314268804086, "timestamp": "2025-12-06T11:28:11.331266+00:00", "meta": {"OBJECT_NAME": "NNSS 19 (TRANSIT 19)", "OBJECT_ID": "1970-067A", "EPOCH": "2025-12-05T17:44:56.395968", "MEAN_MOTION": 13.51312382, "ECCENTRICITY": 0.0171015, "INCLINATION": 90.0058, "RA_OF_ASC_NODE": 234.529, "ARG_OF_PERICENTER": 313.8154, "MEAN_ANOMALY": 44.8961, "EPHEMERIS_TYPE": 0, "CLASSIFICATION_TYPE": "U", "NORAD_CAT_ID": 4507, "ELEMENT_SET_NO": 999, "REV_AT_EPOCH": 72127, "BSTAR": 0.00035550443, "MEAN_MOTION_DOT": 2.6e-06, "MEAN_MOTION_DDOT": 0}, "tle": {"line1": "1 04507U 70067A   25339.73954162  .00000260  00000+0  35550-3 0  9993", "line2": "2 04507  90.0058 234.5290 0171015 313.8154  44.8961 13.51312382721275"}}, "geometry": {"type": "Point", "coordinates": [-125.46950245859003, -10.395285722779592]}}, {"type": "Feature", "properties": {"norad_id": 6909, "name": "NNSS 20 (TRANSIT 20)", "group": "nnss", "lat": -33.18425780799564, "lon": -104.94636704995024, "alt_km": 1073.6189827829594, "timestamp": "2025-12-06T11:28:11.331278+00:00", "meta": {"OBJECT_NAME": "NNSS 20 (TRANSIT 20)", "OBJECT_ID": "1973-081A", "EPOCH": "2025-12-05T18:07:21.224928", "MEAN_MOTION": 13.71429624, "ECCENTRICITY": 0.01565339, "INCLINATION": 89.8558, "RA_OF_ASC_NODE": 255.1589, "ARG_OF_PERICENTER": 98.9986, "MEAN_ANOMALY": 262.893, "EPHEMERIS_TYPE": 0, "CLASSIFICATION_TYPE": "U", "NORAD_CAT_ID": 6909, "ELEMENT_SET_NO": 999, "REV_AT_EPOCH": 80265, "BSTAR": 0.00036936938, "MEAN_MOTION_DOT": 3.74e-06, "MEAN_MOTION_DDOT": 0}, "tle": {"line1": "1 06909U 73081A   25339.75510677  .00000374  00000+0  36937-3 0  9997", "line2": "2 06909  89.8558 255.1589 0156533  98.9986 262.8930 13.71429624802656"}}, "geometry": {"type": "Point", "coordinates": [-104.94636704995024, -33.18425780799564]}}, {"type": "Feature", "properties": {"norad_id": 10457, "name": "TRANSAT", "group": "nnss", "lat": 46.70709467987409, "lon": 79.19218947535275, "alt_km": 1089.5713757369704, "timestamp": "2025-12-06T11:28:11.331289+00:00", "meta": {"OBJECT_NAME": "TRANSAT", "OBJECT_ID": "1977-106A", "EPOCH": "2025-12-05T19:46:13.467936", "MEAN_MOTION": 13.48941961, "ECCENTRICITY": 0.00247644, "INCLINATION": 89.6483, "RA_OF_ASC_NODE": 78.8418, "ARG_OF_PERICENTER": 209.8689, "MEAN_ANOMALY": 262.2526, "EPHEMERIS_TYPE": 0, "CLASSIFICATION_TYPE": "U", "NORAD_CAT_ID": 10457, "ELEMENT_SET_NO": 999, "REV_AT_EPOCH": 36650, "BSTAR": 0.00020972293, "MEAN_MOTION_DOT": 1.42e-06, "MEAN_MOTION_DDOT": 0}, "tle": {"line1": "1 10457U 77106A   25339.82376699  .00000142  00000+0  20972-3 0  9999", "line2": "2 10457  89.6483  78.8418 0024764 209.8689 262.2526 13.48941961366509"}}, "geometry": {"type": "Point", "coordinates": [79.19218947535275, 46.70709467987409]}}, {"type": "Feature", "properties": {"norad_id": 12458, "name": "NOVA 1", "group": "nnss", "lat": 13.590770870785242, "lon": -88.56202163438117, "alt_km": 1165.16300184807, "timestamp": "2025-12-06T11:28:11.331299+00:00", "meta": {"OBJECT_NAME": "NOVA 1", "OBJECT_ID": "1981-044A", "EPOCH": "2025-12-05T20:44:08.520000", "MEAN_MOTION": 13.23277436, "ECCENTRICITY": 0.00156501, "INCLINATION": 89.8524, "RA_OF_ASC_NODE": 91.4824, "ARG_OF_PERICENTER": 120.9242, "MEAN_ANOMALY": 2.3413, "EPHEMERIS_TYPE": 0, "CLASSIFICATION_TYPE": "U", "NORAD_CAT_ID": 12458, "ELEMENT_SET_NO": 999, "REV_AT_EPOCH": 15095, "BSTAR": 0.00017933302, "MEAN_MOTION_DOT": 8.5e-07, "MEAN_MOTION_DDOT": 0}, "tle": {"line1": "1 12458U 81044A   25339.86398750  .00000085  00000+0  17933-3 0  9993", "line2": "2 12458  89.8524  91.4824 0015650 120.9242   2.3413 13.23277436150954"}}, "geometry": {"type": "Point", "coordinates": [-88.56202163438117, 13.590770870785242]}}, {"type": "Feature", "properties": {"norad_id": 15362, "name": "NOVA 3", "group": "nnss", "lat": 44.33452612926372, "lon": 80.34108167450454, "alt_km": 1155.8308048290673, "timestamp": "2025-12-06T11:28:11.331310+00:00", "meta": {"OBJECT_NAME": "NOVA 3", "OBJECT_ID": "1984-110A", "EPOCH": "2025-12-05T21:20:06.144864", "MEAN_MOTION": 13.23043281, "ECCENTRICITY": 0.00310627, "INCLINATION": 90.1225, "RA_OF_ASC_NODE": 80.4539, "ARG_OF_PERICENTER": 351.1717, "MEAN_ANOMALY": 129.4343, "EPHEMERIS_TYPE": 0, "CLASSIFICATION_TYPE": "U", "NORAD_CAT_ID": 15362, "ELEMENT_SET_NO": 999, "REV_AT_EPOCH": 98608, "BSTAR": 0.00023552905, "MEAN_MOTION_DOT": 1.08e-06, "MEAN_MOTION_DDOT": 0}, "tle": {"line1": "1 15362U 84110A   25339.88896001  .00000108  00000+0  23553-3 0  9992", "line2": "2 15362  90.1225  80.4539 0031062 351.1717 129.4343 13.23043281986088"}}, "geometry": {"type": "Point", "coordinates": [80.34108167450454, 44.33452612926372]}}, {"type": "Feature", "properties": {"norad_id": 15935, "name": "OSCAR 30", "group": "nnss", "lat": -13.546349941212638, "lon": -80.2949812210849, "alt_km": 1130.8959845313775, "timestamp": "2025-12-06T11:28:11.331320+00:00", "meta": {"OBJECT_NAME": "OSCAR 30", "OBJECT_ID": "1985-066A", "EPOCH": "2025-12-05T22:31:43.286016", "MEAN_MOTION": 13.36076487, "ECCENTRICITY": 0.0169362, "INCLINATION": 90.1648, "RA_OF_ASC_NODE": 99.736, "ARG_OF_PERICENTER": 102.8839, "MEAN_ANOMALY": 16.5809, "EPHEMERIS_TYPE": 0, "CLASSIFICATION_TYPE": "U", "NORAD_CAT_ID": 15935, "ELEMENT_SET_NO": 999, "REV_AT_EPOCH": 96362, "BSTAR": 0.00023154159, "MEAN_MOTION_DOT": 1.39e-06, "MEAN_MOTION_DDOT": 0}, "tle": {"line1": "1 15935U 85066A   25339.93869544  .00000139  00000+0  23154-3 0  9998", "line2": "2 15935  90.1648  99.7360 0169362 102.8839  16.5809 13.36076487963625"}}, "geometry": {"type": "Point", "coordinates": [-80.2949812210849, -13.546349941212638]}}, {"type": "Feature", "properties": {"norad_id": 15936, "name": "OSCAR 24", "group": "nnss", "lat": -89.35159209369837, "lon": 108.21052354106428, "alt_km": 1253.9092222553118, "timestamp": "2025-12-06T11:28:11.331331+00:00", "meta": {"OBJECT_NAME": "OSCAR 24", "OBJECT_ID": "1985-066B", "EPOCH": "2025-12-05T22:09:38.082816", "MEAN_MOTION": 13.35934235, "ECCENTRICITY": 0.01703785, "INCLINATION": 90.1788, "RA_OF_ASC_NODE": 92.1849, "ARG_OF_PERICENTER": 109.3653, "MEAN_ANOMALY": 15.201, "EPHEMERIS_TYPE": 0, "CLASSIFICATION_TYPE": "U", "NORAD_CAT_ID": 15936, "ELEMENT_SET_NO": 999, "REV_AT_EPOCH": 96552, "BSTAR": 0.00022573682, "MEAN_MOTION_DOT": 1.36e-06, "MEAN_MOTION_DDOT": 0}, "tle": {"line1": "1 15936U 85066B   25339.92335744  .00000136  00000+0  22574-3 0  9990", "line2": "2 15936  90.1788  92.1849 0170378 109.3653  15.2010 13.35934235965529"}}, "geometry": {"type": "Point", "coordinates": [108.21052354106428, -89.35159209369837]}}]}